ONEWEB-0176             
1 48210U 21031A   25268.74580770  .00000171  00000+0  42584-3 0  9997
2 48210  87.9072 342.3617 0001777 104.3370 255.7957 13.14502067213573
ONEWEB-0184             
1 48211U 21031B   25268.71884984  .00000054  00000+0  11068-3 0  9992
2 48211  87.9082 342.3400 0001587 128.6534 231.4738 13.14502508213540
ONEWEB-0179             
1 48212U 21031C   25268.76561479 -.00000139  00000+0 -40995-3 0  9996
2 48212  87.9071 342.3454 0001907  99.7403 260.3942 13.14504012213592
ONEWEB-0180             
1 48213U 21031D   25268.72200578  .00000117  00000+0  28175-3 0  9993
2 48213  87.9082 342.3452 0002046 107.5078 252.6275 13.14504835213477
ONEWEB-0218             
1 48214U 21031E   25268.74421314  .00000160  00000+0  39578-3 0  9996
2 48214  87.9083 342.3414 0001837 130.3483 229.7808 13.14504340213634
ONEWEB-0209             
1 48215U 21031F   25268.20029567  .00000282  00000+0  72748-3 0  9993
2 48215  87.9078 342.4922 0002049 101.4956 258.6404 13.14504992213562
ONEWEB-0198             
1 48216U 21031G   25268.71738456  .00000028  00000+0  40563-4 0  9993
2 48216  87.9070 342.3888 0002058 112.8641 247.2706 13.14501688213740
ONEWEB-0189             
1 48217U 21031H   25268.50159014  .00000261  00000+0  66861-3 0  9995
2 48217  87.9073 342.4047 0002021 111.4309 248.7036 13.14501535213459
